TRANSPORTER-16 OBJECT CM
1 68499U 26067CM  26114.25803035  .00001181  00000+0  12384-3 0  9998
2 68499  97.7547  73.3431 0001205 144.4053 215.7246 14.91399989  3683
ICEYE-X74
1 68500U 26067CN  26114.25749779  .00001641  00000+0  16968-3 0  9998
2 68500  97.7582  73.3531 0001977 151.0463 209.0865 14.91450159  3681
TRANSPORTER-16 OBJECT CP
1 68501U 26067CP  26114.26103971  .00001461  00000+0  15248-3 0  9998
2 68501  97.7595  73.3510 0002828 176.6144 183.5094 14.91254365  3689
ICEYE-X76
1 68502U 26067CQ  26114.65889808  .00001757  00000+0  18098-3 0  9996
2 68502  97.7588  73.7523 0002217 143.5769 216.5601 14.91520533  3749
FLYLAB2
1 68503U 26067CR  26114.33659019  .00001487  00000+0  15773-3 0  9998
2 68503  97.7535  73.3919 0003772 229.5245 130.5644 14.90543979  3692
ICEYE-X72
1 68504U 26067CS  26114.25213328  .00001959  00000+0  19987-3 0  9994
2 68504  97.7588  73.3619 0002824 122.8910 237.2581 14.91776866  3687
GEMS2-AMETHYST
1 68505U 26067CT  26114.33787167  .00003485  00000+0  36080-3 0  9990
2 68505  97.7568  73.3990 0004311 208.5962 151.5020 14.90692678  3694
STARLINK-37262
1 68508U 26068A   26114.69159948  .00226672  00000+0  11203-2 0  9997
2 68508  53.1563 278.7861 0000644  85.3168 274.7928 15.80906488  3940
STARLINK-36292
1 68509U 26068B   26114.75329821 -.00180023  00000+0 -92424-3 0  9990
2 68509  53.1562 278.4593 0001386   2.3158 357.7870 15.80950967  3951
STARLINK-37260
1 68510U 26068C   26114.75330697  .00107841  00000+0  54237-3 0  9990
2 68510  53.1560 278.4587 0001420  39.3761 320.7365 15.80902599  3950
STARLINK-37280
1 68511U 26068D   26114.56289689  .00191356  00000+0  94884-3 0  9990
2 68511  53.1556 279.4045 0000885  76.6314 283.4808 15.80938479  3928
STARLINK-37286
1 68512U 26068E   26114.75181030  .00072033  00000+0  36524-3 0  9990
2 68512  53.1564 278.4495 0000892  21.2747 338.8313 15.80885751  3953
STARLINK-36250
1 68513U 26068F   26114.68783514  .00153858  00000+0  76702-3 0  9995
2 68513  53.1563 278.7612 0001028  37.4284 322.6810 15.80935980  3946
STARLINK-37251
1 68514U 26068G   26114.68768083 -.01243782  00000+0 -80719-2 0  9991
2 68514  53.1566 278.7617 0000561 309.4902  50.6070 15.78148063  3946
STARLINK-36293
1 68515U 26068H   26112.97941729  .00379916  00000+0  18285-2 0  9997
2 68515  53.1568 287.3051 0001832  44.5246 315.5924 15.81068158  3678
STARLINK-36290
1 68516U 26068J   26114.74881463  .00309506  00000+0  14928-2 0  9991
2 68516  53.1572 278.4317 0005362 357.5631   2.5365 15.81198790  3956
STARLINK-36298
1 68517U 26068K   26114.83335647 -.02486454  00000+0 -21125-1 0  9998
2 68517  53.1590 278.0473 0001045  52.8804  48.0192 15.72174280  5185
