[{"OBJECT_NAME":"TRANSPORTER-16 OBJECT CM","OBJECT_ID":"2026-067CM","EPOCH":"2026-04-24T06:11:33.822240","MEAN_MOTION":14.91399989,"ECCENTRICITY":0.0001205,"INCLINATION":97.7547,"RA_OF_ASC_NODE":73.3431,"ARG_OF_PERICENTER":144.4053,"MEAN_ANOMALY":215.7246,"EPHEMERIS_TYPE":0,"CLASSIFICATION_TYPE":"U","NORAD_CAT_ID":68499,"ELEMENT_SET_NO":999,"REV_AT_EPOCH":368,"BSTAR":0.00012384,"MEAN_MOTION_DOT":1.181e-5,"MEAN_MOTION_DDOT":0},{"OBJECT_NAME":"ICEYE-X74","OBJECT_ID":"2026-067CN","EPOCH":"2026-04-24T06:10:47.809056","MEAN_MOTION":14.91450159,"ECCENTRICITY":0.0001977,"INCLINATION":97.7582,"RA_OF_ASC_NODE":73.3531,"ARG_OF_PERICENTER":151.0463,"MEAN_ANOMALY":209.0865,"EPHEMERIS_TYPE":0,"CLASSIFICATION_TYPE":"U","NORAD_CAT_ID":68500,"ELEMENT_SET_NO":999,"REV_AT_EPOCH":368,"BSTAR":0.00016968,"MEAN_MOTION_DOT":1.641e-5,"MEAN_MOTION_DDOT":0},{"OBJECT_NAME":"TRANSPORTER-16 OBJECT CP","OBJECT_ID":"2026-067CP","EPOCH":"2026-04-24T06:15:53.830944","MEAN_MOTION":14.91254365,"ECCENTRICITY":0.0002828,"INCLINATION":97.7595,"RA_OF_ASC_NODE":73.351,"ARG_OF_PERICENTER":176.6144,"MEAN_ANOMALY":183.5094,"EPHEMERIS_TYPE":0,"CLASSIFICATION_TYPE":"U","NORAD_CAT_ID":68501,"ELEMENT_SET_NO":999,"REV_AT_EPOCH":368,"BSTAR":0.00015248,"MEAN_MOTION_DOT":1.461e-5,"MEAN_MOTION_DDOT":0},{"OBJECT_NAME":"ICEYE-X76","OBJECT_ID":"2026-067CQ","EPOCH":"2026-04-24T15:48:48.794112","MEAN_MOTION":14.91520533,"ECCENTRICITY":0.0002217,"INCLINATION":97.7588,"RA_OF_ASC_NODE":73.7523,"ARG_OF_PERICENTER":143.5769,"MEAN_ANOMALY":216.5601,"EPHEMERIS_TYPE":0,"CLASSIFICATION_TYPE":"U","NORAD_CAT_ID":68502,"ELEMENT_SET_NO":999,"REV_AT_EPOCH":374,"BSTAR":0.00018098,"MEAN_MOTION_DOT":1.757e-5,"MEAN_MOTION_DDOT":0},{"OBJECT_NAME":"FLYLAB2","OBJECT_ID":"2026-067CR","EPOCH":"2026-04-24T08:04:41.392416","MEAN_MOTION":14.90543979,"ECCENTRICITY":0.0003772,"INCLINATION":97.7535,"RA_OF_ASC_NODE":73.3919,"ARG_OF_PERICENTER":229.5245,"MEAN_ANOMALY":130.5644,"EPHEMERIS_TYPE":0,"CLASSIFICATION_TYPE":"U","NORAD_CAT_ID":68503,"ELEMENT_SET_NO":999,"REV_AT_EPOCH":369,"BSTAR":0.00015773,"MEAN_MOTION_DOT":1.487e-5,"MEAN_MOTION_DDOT":0},{"OBJECT_NAME":"ICEYE-X72","OBJECT_ID":"2026-067CS","EPOCH":"2026-04-24T06:03:04.315392","MEAN_MOTION":14.91776866,"ECCENTRICITY":0.0002824,"INCLINATION":97.7588,"RA_OF_ASC_NODE":73.3619,"ARG_OF_PERICENTER":122.891,"MEAN_ANOMALY":237.2581,"EPHEMERIS_TYPE":0,"CLASSIFICATION_TYPE":"U","NORAD_CAT_ID":68504,"ELEMENT_SET_NO":999,"REV_AT_EPOCH":368,"BSTAR":0.00019987,"MEAN_MOTION_DOT":1.959e-5,"MEAN_MOTION_DDOT":0},{"OBJECT_NAME":"GEMS2-AMETHYST","OBJECT_ID":"2026-067CT","EPOCH":"2026-04-24T08:06:32.112288","MEAN_MOTION":14.90692678,"ECCENTRICITY":0.0004311,"INCLINATION":97.7568,"RA_OF_ASC_NODE":73.399,"ARG_OF_PERICENTER":208.5962,"MEAN_ANOMALY":151.502,"EPHEMERIS_TYPE":0,"CLASSIFICATION_TYPE":"U","NORAD_CAT_ID":68505,"ELEMENT_SET_NO":999,"REV_AT_EPOCH":369,"BSTAR":0.0003608,"MEAN_MOTION_DOT":3.485e-5,"MEAN_MOTION_DDOT":0},{"OBJECT_NAME":"STARLINK-37262","OBJECT_ID":"2026-068A","EPOCH":"2026-04-24T16:35:54.195072","MEAN_MOTION":15.80906488,"ECCENTRICITY":6.44e-5,"INCLINATION":53.1563,"RA_OF_ASC_NODE":278.7861,"ARG_OF_PERICENTER":85.3168,"MEAN_ANOMALY":274.7928,"EPHEMERIS_TYPE":0,"CLASSIFICATION_TYPE":"U","NORAD_CAT_ID":68508,"ELEMENT_SET_NO":999,"REV_AT_EPOCH":394,"BSTAR":0.0011203,"MEAN_MOTION_DOT":0.00226672,"MEAN_MOTION_DDOT":0},{"OBJECT_NAME":"STARLINK-36292","OBJECT_ID":"2026-068B","EPOCH":"2026-04-24T18:04:44.965344","MEAN_MOTION":15.80950967,"ECCENTRICITY":0.0001386,"INCLINATION":53.1562,"RA_OF_ASC_NODE":278.4593,"ARG_OF_PERICENTER":2.3158,"MEAN_ANOMALY":357.787,"EPHEMERIS_TYPE":0,"CLASSIFICATION_TYPE":"U","NORAD_CAT_ID":68509,"ELEMENT_SET_NO":999,"REV_AT_EPOCH":395,"BSTAR":-0.00092424,"MEAN_MOTION_DOT":-0.00180023,"MEAN_MOTION_DDOT":0},{"OBJECT_NAME":"STARLINK-37260","OBJECT_ID":"2026-068C","EPOCH":"2026-04-24T18:04:45.722208","MEAN_MOTION":15.80902599,"ECCENTRICITY":0.000142,"INCLINATION":53.156,"RA_OF_ASC_NODE":278.4587,"ARG_OF_PERICENTER":39.3761,"MEAN_ANOMALY":320.7365,"EPHEMERIS_TYPE":0,"CLASSIFICATION_TYPE":"U","NORAD_CAT_ID":68510,"ELEMENT_SET_NO":999,"REV_AT_EPOCH":395,"BSTAR":0.00054237,"MEAN_MOTION_DOT":0.00107841,"MEAN_MOTION_DDOT":0},{"OBJECT_NAME":"STARLINK-37280","OBJECT_ID":"2026-068D","EPOCH":"2026-04-24T13:30:34.291296","MEAN_MOTION":15.80938479,"ECCENTRICITY":8.85e-5,"INCLINATION":53.1556,"RA_OF_ASC_NODE":279.4045,"ARG_OF_PERICENTER":76.6314,"MEAN_ANOMALY":283.4808,"EPHEMERIS_TYPE":0,"CLASSIFICATION_TYPE":"U","NORAD_CAT_ID":68511,"ELEMENT_SET_NO":999,"REV_AT_EPOCH":392,"BSTAR":0.00094884,"MEAN_MOTION_DOT":0.00191356,"MEAN_MOTION_DDOT":0},{"OBJECT_NAME":"STARLINK-37286","OBJECT_ID":"2026-068E","EPOCH":"2026-04-24T18:02:36.409920","MEAN_MOTION":15.80885751,"ECCENTRICITY":8.92e-5,"INCLINATION":53.1564,"RA_OF_ASC_NODE":278.4495,"ARG_OF_PERICENTER":21.2747,"MEAN_ANOMALY":338.8313,"EPHEMERIS_TYPE":0,"CLASSIFICATION_TYPE":"U","NORAD_CAT_ID":68512,"ELEMENT_SET_NO":999,"REV_AT_EPOCH":395,"BSTAR":0.00036524,"MEAN_MOTION_DOT":0.00072033,"MEAN_MOTION_DDOT":0},{"OBJECT_NAME":"STARLINK-36250","OBJECT_ID":"2026-068F","EPOCH":"2026-04-24T16:30:28.956096","MEAN_MOTION":15.8093598,"ECCENTRICITY":0.0001028,"INCLINATION":53.1563,"RA_OF_ASC_NODE":278.7612,"ARG_OF_PERICENTER":37.4284,"MEAN_ANOMALY":322.681,"EPHEMERIS_TYPE":0,"CLASSIFICATION_TYPE":"U","NORAD_CAT_ID":68513,"ELEMENT_SET_NO":999,"REV_AT_EPOCH":394,"BSTAR":0.00076702,"MEAN_MOTION_DOT":0.00153858,"MEAN_MOTION_DDOT":0},{"OBJECT_NAME":"STARLINK-37251","OBJECT_ID":"2026-068G","EPOCH":"2026-04-24T16:30:15.623712","MEAN_MOTION":15.78148063,"ECCENTRICITY":5.61e-5,"INCLINATION":53.1566,"RA_OF_ASC_NODE":278.7617,"ARG_OF_PERICENTER":309.4902,"MEAN_ANOMALY":50.607,"EPHEMERIS_TYPE":0,"CLASSIFICATION_TYPE":"U","NORAD_CAT_ID":68514,"ELEMENT_SET_NO":999,"REV_AT_EPOCH":394,"BSTAR":-0.0080719,"MEAN_MOTION_DOT":-0.01243782,"MEAN_MOTION_DDOT":0},{"OBJECT_NAME":"STARLINK-36293","OBJECT_ID":"2026-068H","EPOCH":"2026-04-22T23:30:21.653856","MEAN_MOTION":15.81068158,"ECCENTRICITY":0.0001832,"INCLINATION":53.1568,"RA_OF_ASC_NODE":287.3051,"ARG_OF_PERICENTER":44.5246,"MEAN_ANOMALY":315.5924,"EPHEMERIS_TYPE":0,"CLASSIFICATION_TYPE":"U","NORAD_CAT_ID":68515,"ELEMENT_SET_NO":999,"REV_AT_EPOCH":367,"BSTAR":0.0018285,"MEAN_MOTION_DOT":0.00379916,"MEAN_MOTION_DDOT":0},{"OBJECT_NAME":"STARLINK-36290","OBJECT_ID":"2026-068J","EPOCH":"2026-04-24T17:58:17.584032","MEAN_MOTION":15.8119879,"ECCENTRICITY":0.0005362,"INCLINATION":53.1572,"RA_OF_ASC_NODE":278.4317,"ARG_OF_PERICENTER":357.5631,"MEAN_ANOMALY":2.5365,"EPHEMERIS_TYPE":0,"CLASSIFICATION_TYPE":"U","NORAD_CAT_ID":68516,"ELEMENT_SET_NO":999,"REV_AT_EPOCH":395,"BSTAR":0.0014928,"MEAN_MOTION_DOT":0.00309506,"MEAN_MOTION_DDOT":0},{"OBJECT_NAME":"STARLINK-36298","OBJECT_ID":"2026-068K","EPOCH":"2026-04-24T20:00:01.999008","MEAN_MOTION":15.7217428,"ECCENTRICITY":0.0001045,"INCLINATION":53.159,"RA_OF_ASC_NODE":278.0473,"ARG_OF_PERICENTER":52.8804,"MEAN_ANOMALY":48.0192,"EPHEMERIS_TYPE":0,"CLASSIFICATION_TYPE":"U","NORAD_CAT_ID":68517,"ELEMENT_SET_NO":999,"REV_AT_EPOCH":518,"BSTAR":-0.021125,"MEAN_MOTION_DOT":-0.02486454,"MEAN_MOTION_DDOT":0}]
